{"type": "FeatureCollection", "features": [ {"type": "Feature", "properties": {"norad_id": 30096, "name": "FENGYUN 1C DEB", "group": "fengyun-1c-debris", "lat": 36.94513223085292, "lon": 65.22513431959716, "alt_km": 840.1904368044079, "timestamp": "2025-12-18T14:52:08.299489+00:00", "meta": {"OBJECT_NAME": "FENGYUN 1C DEB", "OBJECT_ID": "1999-025QZ", "EPOCH": "2025-12-18T04:37:41.026944", "MEAN_MOTION": 14.31700909, "ECCENTRICITY": 0.00793749, "INCLINATION": 99.1474, "RA_OF_ASC_NODE": 71.7357, "ARG_OF_PERICENTER": 216.5522, "MEAN_ANOMALY": 143.0227, "EPHEMERIS_TYPE": 0, "CLASSIFICATION_TYPE": "U", "NORAD_CAT_ID": 30096, "ELEMENT_SET_NO": 999, "REV_AT_EPOCH": 98624, "BSTAR": 0.00026404938, "MEAN_MOTION_DOT": 6.8e-06, "MEAN_MOTION_DDOT": 0}, "tle": {"line1": "1 30096U 99025QZ  25352.19283596  .00000680  00000+0  26405-3 0  9996", "line2": "2 30096  99.1474  71.7357 0079374 216.5522 143.0227 14.31700909986249"}}, "geometry": {"type": "Point", "coordinates": [65.22513431959716, 36.94513223085292]}}, {"type": "Feature", "properties": {"norad_id": 30099, "name": "FENGYUN 1C DEB", "group": "fengyun-1c-debris", "lat": 22.869856816249527, "lon": -111.5890986030435, "alt_km": 790.0001183439481, "timestamp": "2025-12-18T14:52:08.299500+00:00", "meta": {"OBJECT_NAME": "FENGYUN 1C DEB", "OBJECT_ID": "1999-025RC", "EPOCH": "2025-12-18T04:16:59.462400", "MEAN_MOTION": 14.2594484, "ECCENTRICITY": 0.00613159, "INCLINATION": 98.5401, "RA_OF_ASC_NODE": 64.3472, "ARG_OF_PERICENTER": 228.6408, "MEAN_ANOMALY": 185.8516, "EPHEMERIS_TYPE": 0, "CLASSIFICATION_TYPE": "U", "NORAD_CAT_ID": 30099, "ELEMENT_SET_NO": 999, "REV_AT_EPOCH": 98267, "BSTAR": 0.00024280015, "MEAN_MOTION_DOT": 5.47e-06, "MEAN_MOTION_DDOT": 0}, "tle": {"line1": "1 30099U 99025RC  25352.17846600  .00000547  00000+0  24280-3 0  9999", "line2": "2 30099  98.5401  64.3472 0061315 228.6408 185.8516 14.25944840982679"}}, "geometry": {"type": "Point", "coordinates": [-111.5890986030435, 22.869856816249527]}}, {"type": "Feature", "properties": {"norad_id": 30102, "name": "FENGYUN 1C DEB", "group": "fengyun-1c-debris", "lat": -75.44663110646864, "lon": 145.51535737596654, "alt_km": 815.157839285971, "timestamp": "2025-12-18T14:52:08.299510+00:00", "meta": {"OBJECT_NAME": "FENGYUN 1C DEB", "OBJECT_ID": "1999-025RF", "EPOCH": "2025-12-17T22:44:04.732800", "MEAN_MOTION": 14.22138384, "ECCENTRICITY": 0.01413787, "INCLINATION": 98.3789, "RA_OF_ASC_NODE": 359.4672, "ARG_OF_PERICENTER": 345.0049, "MEAN_ANOMALY": 74.8175, "EPHEMERIS_TYPE": 0, "CLASSIFICATION_TYPE": "U", "NORAD_CAT_ID": 30102, "ELEMENT_SET_NO": 999, "REV_AT_EPOCH": 98032, "BSTAR": 0.00027521465, "MEAN_MOTION_DOT": 6.33e-06, "MEAN_MOTION_DDOT": 0}, "tle": {"line1": "1 30102U 99025RF  25351.94727700  .00000633  00000+0  27521-3 0  9994", "line2": "2 30102  98.3789 359.4672 0141378 345.0049  74.8175 14.22138384980327"}}, "geometry": {"type": "Point", "coordinates": [145.51535737596654, -75.44663110646864]}}, {"type": "Feature", "properties": {"norad_id": 30103, "name": "FENGYUN 1C DEB", "group": "fengyun-1c-debris", "lat": -41.87035262939602, "lon": -17.19689451950321, "alt_km": 853.5317075664661, "timestamp": "2025-12-18T14:52:08.299520+00:00", "meta": {"OBJECT_NAME": "FENGYUN 1C DEB", "OBJECT_ID": "1999-025RG", "EPOCH": "2025-12-17T22:28:19.431264", "MEAN_MOTION": 14.24868839, "ECCENTRICITY": 0.00642549, "INCLINATION": 99.2452, "RA_OF_ASC_NODE": 333.6894, "ARG_OF_PERICENTER": 105.202, "MEAN_ANOMALY": 310.19, "EPHEMERIS_TYPE": 0, "CLASSIFICATION_TYPE": "U", "NORAD_CAT_ID": 30103, "ELEMENT_SET_NO": 999, "REV_AT_EPOCH": 97993, "BSTAR": 0.00036174798, "MEAN_MOTION_DOT": 8.15e-06, "MEAN_MOTION_DDOT": 0}, "tle": {"line1": "1 30103U 99025RG  25351.93633601  .00000815  00000+0  36175-3 0  9997", "line2": "2 30103  99.2452 333.6894 0064254 105.2020 310.1900 14.24868839979931"}}, "geometry": {"type": "Point", "coordinates": [-17.19689451950321, -41.87035262939602]}}, {"type": "Feature", "properties": {"norad_id": 30104, "name": "FENGYUN 1C DEB", "group": "fengyun-1c-debris", "lat": -2.4225753775545344, "lon": 9.05884098232449, "alt_km": 810.2670123692251, "timestamp": "2025-12-18T14:52:08.299530+00:00", "meta": {"OBJECT_NAME": "FENGYUN 1C DEB", "OBJECT_ID": "1999-025RH", "EPOCH": "2025-12-18T02:49:50.238912", "MEAN_MOTION": 14.25683381, "ECCENTRICITY": 0.00740945, "INCLINATION": 98.3595, "RA_OF_ASC_NODE": 188.9369, "ARG_OF_PERICENTER": 92.4836, "MEAN_ANOMALY": 36.0383, "EPHEMERIS_TYPE": 0, "CLASSIFICATION_TYPE": "U", "NORAD_CAT_ID": 30104, "ELEMENT_SET_NO": 999, "REV_AT_EPOCH": 97969, "BSTAR": 0.00055250064, "MEAN_MOTION_DOT": 1.308e-05, "MEAN_MOTION_DDOT": 0}, "tle": {"line1": "1 30104U 99025RH  25352.11794258  .00001308  00000+0  55250-3 0  9998", "line2": "2 30104  98.3595 188.9369 0074094  92.4836  36.0383 14.25683381979693"}}, "geometry": {"type": "Point", "coordinates": [9.05884098232449, -2.4225753775545344]}}, {"type": "Feature", "properties": {"norad_id": 30105, "name": "FENGYUN 1C DEB", "group": "fengyun-1c-debris", "lat": -21.29736987057397, "lon": 155.13185813534503, "alt_km": 941.8523817758633, "timestamp": "2025-12-18T14:52:08.299540+00:00", "meta": {"OBJECT_NAME": "FENGYUN 1C DEB", "OBJECT_ID": "1999-025RJ", "EPOCH": "2025-12-17T22:44:05.440416", "MEAN_MOTION": 14.214086, "ECCENTRICITY": 0.01997371, "INCLINATION": 98.594, "RA_OF_ASC_NODE": 337.8567, "ARG_OF_PERICENTER": 58.9337, "MEAN_ANOMALY": 303.1277, "EPHEMERIS_TYPE": 0, "CLASSIFICATION_TYPE": "U", "NORAD_CAT_ID": 30105, "ELEMENT_SET_NO": 999, "REV_AT_EPOCH": 97836, "BSTAR": 0.00029762198, "MEAN_MOTION_DOT": 7.52e-06, "MEAN_MOTION_DDOT": 0}, "tle": {"line1": "1 30105U 99025RJ  25351.94728519  .00000752  00000+0  29762-3 0  9997", "line2": "2 30105  98.5940 337.8567 0199737  58.9337 303.1277 14.21408600978368"}}, "geometry": {"type": "Point", "coordinates": [155.13185813534503, -21.29736987057397]}}, {"type": "Feature", "properties": {"norad_id": 30106, "name": "FENGYUN 1C DEB", "group": "fengyun-1c-debris", "lat": 79.68343378348482, "lon": 140.3522624731849, "alt_km": 600.0586049426593, "timestamp": "2025-12-18T14:52:08.299550+00:00", "meta": {"OBJECT_NAME": "FENGYUN 1C DEB", "OBJECT_ID": "1999-025RK", "EPOCH": "2025-12-18T06:53:53.035296", "MEAN_MOTION": 14.85532833, "ECCENTRICITY": 0.00470171, "INCLINATION": 98.9245, "RA_OF_ASC_NODE": 260.2948, "ARG_OF_PERICENTER": 178.8379, "MEAN_ANOMALY": 301.7594, "EPHEMERIS_TYPE": 0, "CLASSIFICATION_TYPE": "U", "NORAD_CAT_ID": 30106, "ELEMENT_SET_NO": 999, "REV_AT_EPOCH": 98627, "BSTAR": 0.0035933919, "MEAN_MOTION_DOT": 0.00031737, "MEAN_MOTION_DDOT": 0}, "tle": {"line1": "1 30106U 99025RK  25352.28741939  .00031737  00000+0  35934-2 0  9991", "line2": "2 30106  98.9245 260.2948 0047017 178.8379 301.7594 14.85532833986275"}}, "geometry": {"type": "Point", "coordinates": [140.3522624731849, 79.68343378348482]}}, {"type": "Feature", "properties": {"norad_id": 30107, "name": "FENGYUN 1C DEB", "group": "fengyun-1c-debris", "lat": -37.00966687834823, "lon": 56.22667184859371, "alt_km": 809.2980421500979, "timestamp": "2025-12-18T14:52:08.299560+00:00", "meta": {"OBJECT_NAME": "FENGYUN 1C DEB", "OBJECT_ID": "1999-025RL", "EPOCH": "2025-12-18T03:09:40.216608", "MEAN_MOTION": 14.14425437, "ECCENTRICITY": 0.0126403, "INCLINATION": 98.8466, "RA_OF_ASC_NODE": 49.0014, "ARG_OF_PERICENTER": 260.178, "MEAN_ANOMALY": 98.5102, "EPHEMERIS_TYPE": 0, "CLASSIFICATION_TYPE": "U", "NORAD_CAT_ID": 30107, "ELEMENT_SET_NO": 999, "REV_AT_EPOCH": 97637, "BSTAR": 0.00011727931, "MEAN_MOTION_DOT": 1.97e-06, "MEAN_MOTION_DDOT": 0}, "tle": {"line1": "1 30107U 99025RL  25352.13171547  .00000197  00000+0  11728-3 0  9990", "line2": "2 30107  98.8466  49.0014 0126403 260.1780  98.5102 14.14425437976374"}}, "geometry": {"type": "Point", "coordinates": [56.22667184859371, -37.00966687834823]}}, {"type": "Feature", "properties": {"norad_id": 30108, "name": "FENGYUN 1C DEB", "group": "fengyun-1c-debris", "lat": -76.40756680229481, "lon": 17.40013503207313, "alt_km": 826.4720672732701, "timestamp": "2025-12-18T14:52:08.299570+00:00", "meta": {"OBJECT_NAME": "FENGYUN 1C DEB", "OBJECT_ID": "1999-025RM", "EPOCH": "2025-12-17T22:32:07.035648", "MEAN_MOTION": 14.17182428, "ECCENTRICITY": 0.01973711, "INCLINATION": 98.6603, "RA_OF_ASC_NODE": 337.6609, "ARG_OF_PERICENTER": 7.2734, "MEAN_ANOMALY": 45.2944, "EPHEMERIS_TYPE": 0, "CLASSIFICATION_TYPE": "U", "NORAD_CAT_ID": 30108, "ELEMENT_SET_NO": 999, "REV_AT_EPOCH": 97672, "BSTAR": 0.00033595396, "MEAN_MOTION_DOT": 7.75e-06, "MEAN_MOTION_DDOT": 0}, "tle": {"line1": "1 30108U 99025RM  25351.93897032  .00000775  00000+0  33595-3 0  9990", "line2": "2 30108  98.6603 337.6609 0197371   7.2734  45.2944 14.17182428976728"}}, "geometry": {"type": "Point", "coordinates": [17.40013503207313, -76.40756680229481]}}, {"type": "Feature", "properties": {"norad_id": 30109, "name": "FENGYUN 1C DEB", "group": "fengyun-1c-debris", "lat": 40.73813699315465, "lon": -21.522629930468078, "alt_km": 950.4454977949563, "timestamp": "2025-12-18T14:52:08.299580+00:00", "meta": {"OBJECT_NAME": "FENGYUN 1C DEB", "OBJECT_ID": "1999-025RN", "EPOCH": "2025-12-17T23:42:57.767904", "MEAN_MOTION": 14.17557866, "ECCENTRICITY": 0.01674471, "INCLINATION": 98.508, "RA_OF_ASC_NODE": 345.28, "ARG_OF_PERICENTER": 217.1512, "MEAN_ANOMALY": 204.2249, "EPHEMERIS_TYPE": 0, "CLASSIFICATION_TYPE": "U", "NORAD_CAT_ID": 30109, "ELEMENT_SET_NO": 999, "REV_AT_EPOCH": 97626, "BSTAR": 0.00027896759, "MEAN_MOTION_DOT": 6.08e-06, "MEAN_MOTION_DDOT": 0}, "tle": {"line1": "1 30109U 99025RN  25351.98816861  .00000608  00000+0  27897-3 0  9990", "line2": "2 30109  98.5080 345.2800 0167447 217.1512 204.2249 14.17557866976268"}}, "geometry": {"type": "Point", "coordinates": [-21.522629930468078, 40.73813699315465]}}]}